GLOBALSTAR M057 [-]     
1 25943U 99058A   24057.85089318 -.00000063  00000+0  27130-3 0  9999
2 25943  51.9961 259.9900 0003459 100.3708 259.7531 12.24780598108568
GLOBALSTAR M059 [-]     
1 25944U 99058B   24057.48733192 -.00000016  00000+0  86863-3 0  9991
2 25944  52.0023  56.7731 0000575 116.9869  53.1987 11.99964697516819
GLOBALSTAR M056 [-]     
1 25945U 99058C   24057.21235156 -.00000133  00000+0 -53399-3 0  9999
2 25945  51.9967  71.7290 0000796 308.7446 130.3755 12.04772712105131
GLOBALSTAR M039 [-]     
1 25961U 99062A   24057.88831007 -.00000080  00000+0  13139-3 0  9990
2 25961  51.9836 279.3793 0003240  27.1653 332.9382 12.62283070120060
GLOBALSTAR M034 [-]     
1 25962U 99062B   24057.77154821 -.00000160  00000+0 -12524-2 0  9997
2 25962  51.9862 169.7663 0013987 218.1354 309.9974 11.79422932 82176
GLOBALSTAR M029 [-]     
1 25963U 99062C   24057.85924926 -.00000057  00000+0  36284-3 0  9992
2 25963  51.9814 304.2169 0001827 268.0890 170.9198 11.99874193111944
GLOBALSTAR M061 [-]     
1 25964U 99062D   24057.76303563 -.00000086  00000+0 -86299-4 0  9996
2 25964  51.9829 347.5121 0006029 144.9664 229.2498 11.76758577 65096
